[{"OBJECT_NAME":"NANOSAT 1B","OBJECT_ID":"2009-041E","EPOCH":"2026-03-09T21:25:14.277504","MEAN_MOTION":14.92717139,"ECCENTRICITY":0.00507083,"INCLINATION":98.1028,"RA_OF_ASC_NODE":184.556,"ARG_OF_PERICENTER":130.665,"MEAN_ANOMALY":229.8993,"EPHEMERIS_TYPE":0,"CLASSIFICATION_TYPE":"U","NORAD_CAT_ID":35685,"ELEMENT_SET_NO":999,"REV_AT_EPOCH":89960,"BSTAR":0.0002341259,"MEAN_MOTION_DOT":2.414e-5,"MEAN_MOTION_DDOT":0},{"OBJECT_NAME":"NOAA 16 DEB","OBJECT_ID":"2000-055BD","EPOCH":"2026-03-09T18:39:37.734048","MEAN_MOTION":14.80724367,"ECCENTRICITY":0.00275677,"INCLINATION":98.997,"RA_OF_ASC_NODE":4.8082,"ARG_OF_PERICENTER":229.8515,"MEAN_ANOMALY":130.0279,"EPHEMERIS_TYPE":0,"CLASSIFICATION_TYPE":"U","NORAD_CAT_ID":41094,"ELEMENT_SET_NO":999,"REV_AT_EPOCH":53865,"BSTAR":0.004036688,"MEAN_MOTION_DOT":0.00031339,"MEAN_MOTION_DDOT":0}]
